NORAD_CAT_ID,OBJECT_NAME,OBJECT_TYPE,EPOCH,MEAN_MOTION,ECCENTRICITY,INCLINATION,RA_OF_ASC_NODE,ARG_OF_PERICENTER,MEAN_ANOMALY,BSTAR,MEAN_MOTION_DOT,MEAN_MOTION_DDOT,TLE_LINE0,TLE_LINE1,TLE_LINE2,SEMIMAJOR_AXIS,PERIOD,APOGEE,PERIGEE,DECAYED
53142.0,STARLINK-4101,PAYLOAD,2024-04-23 00:07:38,15.08803047,0.0001529,53.2187,12.281,112.0508,248.0647,0.00041592,6.331e-05,0.0,0 STARLINK-4101,1 53142U 22083L   24114.00530561  .00006331  00000-0  41592-3 0  9999,2 53142  53.2187  12.2810 0001529 112.0508 248.0647 15.08803047 97712,6917.993,95.44,540.916,538.801,0.0
53142.0,STARLINK-4101,PAYLOAD,2024-04-23 20:47:39,15.08843836,0.0001618,53.2193,8.4158,99.9946,260.1229,-9.6208e-05,-1.819e-05,0.0,0 STARLINK-4101,1 53142U 22083L   24114.86642405 -.00001819  00000-0 -96208-4 0  9997,2 53142  53.2193   8.4158 0001618  99.9946 260.1229 15.08843836 98463,6917.869,95.437,540.853,538.614,0.0
53142.0,STARLINK-4101,PAYLOAD,2024-04-23 22:23:01,15.08844847,0.0001551,53.2199,8.1201,92.5413,267.5756,-5.9856e-05,-1.241e-05,0.0,0 STARLINK-4101,1 53142U 22083L   24114.93266201 -.00001241  00000-0 -59856-4 0  9998,2 53142  53.2199   8.1201 0001551  92.5413 267.5756 15.08844847 97850,6917.866,95.437,540.804,538.658,0.0
53142.0,STARLINK-4101,PAYLOAD,2024-04-23 23:58:23,15.08866492,0.0001665,53.2186,7.8138,105.7388,254.3788,5.1675e-05,5.35e-06,0.0,0 STARLINK-4101,1 53142U 22083L   24114.99888496  .00000535  00000-0  51675-4 0  9994,2 53142  53.2186   7.8138 0001665 105.7388 254.3788 15.08866492 98484,6917.799,95.436,540.816,538.513,0.0
53142.0,STARLINK-4101,PAYLOAD,2024-04-24 20:38:25,15.08838216,0.0001569,53.219,3.9603,124.7367,235.3773,0.00012462,1.696e-05,0.0,0 STARLINK-4101,1 53142U 22083L   24115.86001917  .00001696  00000-0  12462-3 0  9995,2 53142  53.2190   3.9603 0001569 124.7367 235.3773 15.08838216 98615,6917.886,95.438,540.836,538.665,0.0
53142.0,STARLINK-4101,PAYLOAD,2024-04-24 22:13:48,15.088389,0.0001556,53.2195,3.6645,98.2844,261.8324,0.00013812,1.911e-05,0.0,0 STARLINK-4101,1 53142U 22083L   24115.92626056  .00001911  00000-0  13812-3 0  9999,2 53142  53.2195   3.6645 0001556  98.2844 261.8324 15.08838900 98003,6917.884,95.438,540.825,538.672,0.0
53142.0,STARLINK-4101,PAYLOAD,2024-04-25 01:24:34,15.08844483,0.0001643,53.22,3.0684,109.4535,250.6635,0.0001755,2.506e-05,0.0,0 STARLINK-4101,1 53142U 22083L   24116.05873553  .00002506  00000-0  17550-3 0  9994,2 53142  53.2200   3.0684 0001643 109.4535 250.6635 15.08844483 98022,6917.867,95.437,540.868,538.595,0.0
53142.0,STARLINK-4101,PAYLOAD,2024-04-25 22:04:35,15.08852801,0.0001618,53.218,359.1988,123.2049,236.9098,-4.5564e-05,-1.013e-05,0.0,0 STARLINK-4101,1 53142U 22083L   24116.91985427 -.00001013  00000-0 -45564-4 0  9994,2 53142  53.2180 359.1988 0001618 123.2049 236.9098 15.08852801 98154,6917.841,95.437,540.826,538.587,0.0
53142.0,STARLINK-4101,PAYLOAD,2024-04-26 01:15:21,15.0885674,0.0001373,53.2186,358.6007,86.598,273.5169,2.1587e-06,-2.54e-06,0.0,0 STARLINK-4101,1 53142U 22083L   24117.05233139 -.00000254  00000-0  21587-5 0  9991,2 53142  53.2186 358.6007 0001373  86.5980 273.5169 15.08856740 98791,6917.829,95.436,540.644,538.744,0.0
53142.0,STARLINK-4101,PAYLOAD,2024-04-26 09:12:17,15.0885289,0.0001201,53.219,357.1133,93.4412,266.6718,-7.8836e-05,-1.543e-05,0.0,0 STARLINK-4101,1 53142U 22083L   24117.38353098 -.00001543  00000-0 -78836-4 0  9995,2 53142  53.2190 357.1133 0001201  93.4412 266.6718 15.08852890 98220,6917.841,95.437,540.537,538.875,0.0
53142.0,STARLINK-4101,PAYLOAD,2024-04-26 15:33:50,15.08845814,0.0001209,53.2172,355.9292,103.2473,256.8654,-8.3495e-06,-4.21e-06,0.0,0 STARLINK-4101,1 53142U 22083L   24117.64849681 -.00000421  00000-0 -83495-5 0  9994,2 53142  53.2172 355.9292 0001209 103.2473 256.8654 15.08845814 98887,6917.863,95.437,540.564,538.891,0.0
53142.0,STARLINK-4101,PAYLOAD,2024-04-26 23:30:44,15.08859753,0.0001459,53.2196,354.4369,101.0417,259.074,0.00014514,2.024e-05,0.0,0 STARLINK-4101,1 53142U 22083L   24117.97968340  .00002024  00000-0  14514-3 0  9997,2 53142  53.2196 354.4369 0001459 101.0417 259.0740 15.08859753 98937,6917.82,95.436,540.694,538.676,0.0
53142.0,STARLINK-4101,PAYLOAD,2024-04-27 21:46:09,15.08845657,0.0001367,53.2185,350.2745,81.6077,278.507,-3.1598e-05,-7.91e-06,0.0,0 STARLINK-4101,1 53142U 22083L   24118.90705630 -.00000791  00000-0 -31598-4 0  9995,2 53142  53.2185 350.2745 0001367  81.6077 278.5070 15.08845657 99076,6917.863,95.437,540.674,538.782,0.0
53142.0,STARLINK-4101,PAYLOAD,2024-04-28 21:36:56,15.08839169,0.0001412,53.217,345.8146,87.8901,272.2253,0.00012033,1.628e-05,0.0,0 STARLINK-4101,1 53142U 22083L   24119.90065541  .00001628  00000-0  12033-3 0  9996,2 53142  53.2170 345.8146 0001412  87.8901 272.2253 15.08839169 98603,6917.883,95.438,540.725,538.771,0.0
53142.0,STARLINK-4101,PAYLOAD,2024-04-29 21:27:43,15.08839551,0.0001153,53.2174,341.3566,69.9379,290.1737,5.674e-05,6.15e-06,0.0,0 STARLINK-4101,1 53142U 22083L   24120.89425711  .00000615  00000-0  56740-4 0  9994,2 53142  53.2174 341.3566 0001153  69.9379 290.1737 15.08839551 99372,6917.882,95.438,540.544,538.949,0.0
53142.0,STARLINK-4101,PAYLOAD,2024-04-30 00:38:29,15.08846118,0.0001404,53.2182,340.7584,79.1948,280.9202,4.2165e-05,3.83e-06,0.0,0 STARLINK-4101,1 53142U 22083L   24121.02673292  .00000383  00000-0  42165-4 0  9997,2 53142  53.2182 340.7584 0001404  79.1948 280.9202 15.08846118 99391,6917.862,95.437,540.698,538.755,0.0
53142.0,STARLINK-4101,PAYLOAD,2024-04-30 19:43:07,15.08839838,0.0001306,53.2182,337.1893,90.1754,269.9388,-4.0808e-09,-2.88e-06,0.0,0 STARLINK-4101,1 53142U 22083L   24121.82161895 -.00000288  00000-0 -40808-8 0  9998,2 53142  53.2182 337.1893 0001306  90.1754 269.9388 15.08839838 99510,6917.881,95.438,540.649,538.842,0.0
53142.0,STARLINK-4101,PAYLOAD,2024-05-01 06:50:49,15.08844302,0.0001407,53.2181,335.1089,93.2402,266.8751,7.906e-05,9.71e-06,0.0,0 STARLINK-4101,1 53142U 22083L   24122.28529279  .00000971  00000-0  79060-4 0  9998,2 53142  53.2181 335.1089 0001407  93.2402 266.8751 15.08844302 99589,6917.867,95.437,540.706,538.759,0.0
53142.0,STARLINK-4101,PAYLOAD,2024-05-01 21:09:15,15.08869263,0.0002366,53.218,332.4332,81.3311,278.7949,0.00022683,3.326e-05,0.0,0 STARLINK-4101,1 53142U 22083L   24122.88142975  .00003326  00000-0  22683-3 0  9993,2 53142  53.2180 332.4332 0002366  81.3311 278.7949 15.08869263 99675,6917.791,95.436,541.293,538.019,0.0
53142.0,STARLINK-4101,PAYLOAD,2024-05-01 22:44:38,15.08876109,0.0003031,53.218,332.1329,79.9521,280.1814,0.00027865,4.153e-05,0.0,0 STARLINK-4101,1 53142U 22083L   24122.94766348  .00004153  00000-0  27865-3 0  9992,2 53142  53.2180 332.1329 0003031  79.9521 280.1814 15.08876109 99680,6917.77,95.435,541.732,537.538,0.0
53142.0,STARLINK-4101,PAYLOAD,2024-05-02 06:41:08,15.09164454,0.0001175,53.2183,330.6466,93.7478,266.3648,0.0025717,0.00041247,0.0,0 STARLINK-4101,1 53142U 22083L   24123.27857633  .00041247  00000-0  25717-2 0  9995,2 53142  53.2183 330.6466 0001175  93.7478 266.3648 15.09164454 99731,6916.889,95.417,539.567,537.941,0.0
53142.0,STARLINK-4101,PAYLOAD,2024-05-02 20:59:00,15.09484082,0.000173,53.2173,327.9675,139.7516,220.3605,0.0046476,0.00075804,0.0,0 STARLINK-4101,1 53142U 22083L   24123.87431488  .00075804  00000-0  46476-2 0  9998,2 53142  53.2173 327.9675 0001730 139.7516 220.3605 15.09484082 99827,6915.912,95.397,538.974,536.581,0.0
53142.0,STARLINK-4101,PAYLOAD,2024-05-03 12:52:00,15.09840523,0.0002183,53.2168,324.9886,82.5474,277.5766,0.0062549,0.00103531,0.0,0 STARLINK-4101,1 53142U 22083L   24124.53611296  .00103531  00000-0  62549-2 0  9997,2 53142  53.2168 324.9886 0002183  82.5474 277.5766 15.09840523 99922,6914.824,95.374,538.198,535.179,0.0
53142.0,STARLINK-4101,PAYLOAD,2024-05-03 22:00:01,15.105202,0.0001312,53.2155,323.2821,87.4743,181.9307,-0.009917,-0.00161902,0.0,0 STARLINK-4101,1 53142U 22083L   24124.91668981 -.00161902  00000-0 -99170-2 0  9990,2 53142  53.2155 323.2821 0001312  87.4743 181.9307 15.10520200 99978,6912.749,95.331,535.521,533.707,0.0
53142.0,STARLINK-4101,PAYLOAD,2024-05-04 06:00:00,15.10430598,0.0001107,53.2151,321.7805,90.4581,192.4413,-0.031152,-0.00489238,0.0,0 STARLINK-4101,1 53142U 22083L   24125.25001157 -.00489238  00000-0 -31152-1 0  9994,2 53142  53.2151 321.7805 0001107  90.4581 192.4413 15.10430598100029,6913.023,95.337,535.653,534.123,0.0
53142.0,STARLINK-4101,PAYLOAD,2024-05-04 22:00:01,15.09750383,0.0001134,53.215,318.7831,82.194,226.9779,-0.028074,-0.00431715,0.0,0 STARLINK-4101,1 53142U 22083L   24125.91668981 -.00431715  00000-0 -28074-1 0  9997,2 53142  53.2150 318.7831 0001134  82.1940 226.9779 15.09750383100124,6915.099,95.38,537.748,536.18,0.0
53142.0,STARLINK-4101,PAYLOAD,2024-05-05 12:31:58,15.09805208,0.0001897,53.2164,316.0633,84.1935,275.9274,-0.0045868,-0.00074478,0.0,0 STARLINK-4101,1 53142U 22083L   24126.52220661 -.00074478  00000-0 -45868-2 0  9994,2 53142  53.2164 316.0633 0001897  84.1935 275.9274 15.09805208100224,6914.932,95.377,538.108,535.485,0.0
53142.0,STARLINK-4101,PAYLOAD,2024-05-05 22:00:00,15.0881293,0.0001068,53.2149,314.2905,77.5018,267.9864,0.0021616,0.00034256,0.0,0 STARLINK-4101,1 53142U 22083L   24126.91667824  .00034256  00000-0  21616-2 0  9996,2 53142  53.2149 314.2905 0001068  77.5018 267.9864 15.08812930100288,6917.963,95.439,540.567,539.089,0.0
53142.0,STARLINK-4101,PAYLOAD,2024-05-06 06:01:05,15.09425702,0.0001402,53.2176,312.7907,83.0815,277.0336,-0.0064332,-0.0010285,0.0,0 STARLINK-4101,1 53142U 22083L   24127.25075477 -.00102850  00000-0 -64332-2 0  9991,2 53142  53.2176 312.7907 0001402  83.0815 277.0336 15.09425702100332,6916.091,95.401,538.925,536.986,0.0
53142.0,STARLINK-4101,PAYLOAD,2024-05-06 18:43:58,15.09272997,0.0001154,53.2172,310.4096,107.3014,252.8104,-0.0051655,-0.00082526,0.0,0 STARLINK-4101,1 53142U 22083L   24127.78053717 -.00082526  00000-0 -51655-2 0  9993,2 53142  53.2172 310.4096 0001154 107.3014 252.8104 15.09272997100416,6916.557,95.41,539.22,537.624,0.0
